[{"OBJECT_NAME":"HAWK-C","OBJECT_ID":"2018-099AT","EPOCH":"2026-03-09T16:08:34.251360","MEAN_MOTION":15.26407167,"ECCENTRICITY":0.00403625,"INCLINATION":97.4027,"RA_OF_ASC_NODE":122.6817,"ARG_OF_PERICENTER":277.4052,"MEAN_ANOMALY":82.2601,"EPHEMERIS_TYPE":0,"CLASSIFICATION_TYPE":"U","NORAD_CAT_ID":43799,"ELEMENT_SET_NO":999,"REV_AT_EPOCH":39872,"BSTAR":0.00035662773,"MEAN_MOTION_DOT":9.431e-5,"MEAN_MOTION_DDOT":0},{"OBJECT_NAME":"STARLINK-34913","OBJECT_ID":"2025-190U","EPOCH":"2026-03-09T13:16:23.957184","MEAN_MOTION":15.30195064,"ECCENTRICITY":8.454e-5,"INCLINATION":53.1587,"RA_OF_ASC_NODE":168.8554,"ARG_OF_PERICENTER":80.8012,"MEAN_ANOMALY":279.3084,"EPHEMERIS_TYPE":0,"CLASSIFICATION_TYPE":"U","NORAD_CAT_ID":65369,"ELEMENT_SET_NO":999,"REV_AT_EPOCH":2973,"BSTAR":0.0009006158,"MEAN_MOTION_DOT":0.00026405,"MEAN_MOTION_DDOT":0}]
